[{"OBJECT_NAME":"TIANMU-1 11","OBJECT_ID":"2023-205A","EPOCH":"2026-03-10T00:04:04.804896","MEAN_MOTION":15.25886825,"ECCENTRICITY":0.00089558,"INCLINATION":97.3549,"RA_OF_ASC_NODE":92.1484,"ARG_OF_PERICENTER":7.2987,"MEAN_ANOMALY":352.838,"EPHEMERIS_TYPE":0,"CLASSIFICATION_TYPE":"U","NORAD_CAT_ID":58645,"ELEMENT_SET_NO":999,"REV_AT_EPOCH":12239,"BSTAR":0.00031315232,"MEAN_MOTION_DOT":7.963e-5,"MEAN_MOTION_DDOT":0},{"OBJECT_NAME":"STARLINK-34767","OBJECT_ID":"2025-263Y","EPOCH":"2026-03-09T03:36:45.055872","MEAN_MOTION":15.2760283,"ECCENTRICITY":6.635e-5,"INCLINATION":43.0096,"RA_OF_ASC_NODE":353.9748,"ARG_OF_PERICENTER":347.3521,"MEAN_ANOMALY":12.7314,"EPHEMERIS_TYPE":0,"CLASSIFICATION_TYPE":"U","NORAD_CAT_ID":66507,"ELEMENT_SET_NO":999,"REV_AT_EPOCH":1881,"BSTAR":0.0011370344,"MEAN_MOTION_DOT":0.0003118,"MEAN_MOTION_DDOT":0}]
